{"type": "FeatureCollection", "features": [{"type": "Feature", "properties": {"norad_id": 50032, "name": "COSMOS 1408 DEB", "group": "cosmos-1408-debris", "lat": -57.98051135850399, "lon": 36.46688730814769, "alt_km": 443.1366574915173, "timestamp": "2025-12-22T11:33:20.709900+00:00", "meta": {"OBJECT_NAME": "COSMOS 1408 DEB", "OBJECT_ID": "1982-092RU", "EPOCH": "2025-12-22T04:02:31.932960", "MEAN_MOTION": 15.45783536, "ECCENTRICITY": 0.0016203, "INCLINATION": 82.5631, "RA_OF_ASC_NODE": 48.8449, "ARG_OF_PERICENTER": 173.5124, "MEAN_ANOMALY": 186.6338, "EPHEMERIS_TYPE": 0, "CLASSIFICATION_TYPE": "U", "NORAD_CAT_ID": 50032, "ELEMENT_SET_NO": 999, "REV_AT_EPOCH": 22749, "BSTAR": 0.00010471, "MEAN_MOTION_DOT": 5.134e-05, "MEAN_MOTION_DDOT": 0}, "tle": {"line1": "1 50032U 82092RU  25356.16842515  .00005134  00000+0  10471-3 0  9992", "line2": "2 50032  82.5631  48.8449 0016203 173.5124 186.6338 15.45783536227495"}}, "geometry": {"type": "Point", "coordinates": [36.46688730814769, -57.98051135850399]}}, {"type": "Feature", "properties": {"norad_id": 50058, "name": "COSMOS 1408 DEB", "group": "cosmos-1408-debris", "lat": 74.12634330588844, "lon": 86.29120770454125, "alt_km": 356.4788935713368, "timestamp": "2025-12-22T11:33:20.709921+00:00", "meta": {"OBJECT_NAME": "COSMOS 1408 DEB", "OBJECT_ID": "1982-092SW", "EPOCH": "2025-12-22T03:33:31.793760", "MEAN_MOTION": 15.6464179, "ECCENTRICITY": 0.0016044, "INCLINATION": 82.6122, "RA_OF_ASC_NODE": 59.4914, "ARG_OF_PERICENTER": 67.1672, "MEAN_ANOMALY": 293.128, "EPHEMERIS_TYPE": 0, "CLASSIFICATION_TYPE": "U", "NORAD_CAT_ID": 50058, "ELEMENT_SET_NO": 999, "REV_AT_EPOCH": 22951, "BSTAR": 0.00034397, "MEAN_MOTION_DOT": 0.0003358, "MEAN_MOTION_DDOT": 0}, "tle": {"line1": "1 50058U 82092SW  25356.14828465  .00033580  00000+0  34397-3 0  9995", "line2": "2 50058  82.6122  59.4914 0016044  67.1672 293.1280 15.64641790229514"}}, "geometry": {"type": "Point", "coordinates": [86.29120770454125, 74.12634330588844]}}, {"type": "Feature", "properties": {"norad_id": 50404, "name": "COSMOS 1408 DEB", "group": "cosmos-1408-debris", "lat": -61.35941684420732, "lon": 39.578970398830954, "alt_km": 499.19195282613055, "timestamp": "2025-12-22T11:33:20.709934+00:00", "meta": {"OBJECT_NAME": "COSMOS 1408 DEB", "OBJECT_ID": "1982-092ADS", "EPOCH": "2025-12-21T15:28:45.909120", "MEAN_MOTION": 15.15078556, "ECCENTRICITY": 0.0168442, "INCLINATION": 82.2035, "RA_OF_ASC_NODE": 205.9075, "ARG_OF_PERICENTER": 168.3631, "MEAN_ANOMALY": 192.1574, "EPHEMERIS_TYPE": 0, "CLASSIFICATION_TYPE": "U", "NORAD_CAT_ID": 50404, "ELEMENT_SET_NO": 999, "REV_AT_EPOCH": 21328, "BSTAR": 0.0028703, "MEAN_MOTION_DOT": 0.00077658, "MEAN_MOTION_DDOT": 0}, "tle": {"line1": "1 50404U 82092ADS 25355.64497580  .00077658  00000+0  28703-2 0  9991", "line2": "2 50404  82.2035 205.9075 0168442 168.3631 192.1574 15.15078556213284"}}, "geometry": {"type": "Point", "coordinates": [39.578970398830954, -61.35941684420732]}}, {"type": "Feature", "properties": {"norad_id": 50621, "name": "COSMOS 1408 DEB", "group": "cosmos-1408-debris", "lat": -10.616369939569154, "lon": -114.56185995671449, "alt_km": 394.6146054320943, "timestamp": "2025-12-22T11:33:20.709946+00:00", "meta": {"OBJECT_NAME": "COSMOS 1408 DEB", "OBJECT_ID": "1982-092ALR", "EPOCH": "2025-12-22T04:34:23.412864", "MEAN_MOTION": 15.57122494, "ECCENTRICITY": 0.0029074, "INCLINATION": 82.5697, "RA_OF_ASC_NODE": 64.3395, "ARG_OF_PERICENTER": 118.4206, "MEAN_ANOMALY": 241.9985, "EPHEMERIS_TYPE": 0, "CLASSIFICATION_TYPE": "U", "NORAD_CAT_ID": 50621, "ELEMENT_SET_NO": 999, "REV_AT_EPOCH": 22397, "BSTAR": 0.00039202, "MEAN_MOTION_DOT": 0.00029066, "MEAN_MOTION_DDOT": 0}, "tle": {"line1": "1 50621U 82092ALR 25356.19054876  .00029066  00000+0  39202-3 0  9997", "line2": "2 50621  82.5697  64.3395 0029074 118.4206 241.9985 15.57122494223978"}}, "geometry": {"type": "Point", "coordinates": [-114.56185995671449, -10.616369939569154]}}]}